NORAD_CAT_ID,OBJECT_NAME,OBJECT_TYPE,EPOCH,MEAN_MOTION,ECCENTRICITY,INCLINATION,RA_OF_ASC_NODE,ARG_OF_PERICENTER,MEAN_ANOMALY,BSTAR,MEAN_MOTION_DOT,MEAN_MOTION_DDOT,TLE_LINE0,TLE_LINE1,TLE_LINE2,SEMIMAJOR_AXIS,PERIOD,APOGEE,PERIGEE,DECAYED
52348.0,STARLINK-3829,PAYLOAD,2023-04-09 11:50:27,15.08838323,0.0001126,53.2154,300.9716,90.2222,269.8899,0.00041027,6.247e-05,0.0,0 STARLINK-3829,1 52348U 22045T   23099.49337761  .00006247  00000-0  41027-3 0  9994,2 52348  53.2154 300.9716 0001126  90.2222 269.8899 15.08838323 54974,6917.886,95.438,540.529,538.972,0.0
52348.0,STARLINK-3829,PAYLOAD,2023-04-09 19:47:23,15.08848557,0.0001184,53.2157,299.4849,85.4403,274.6725,0.00050929,7.829e-05,0.0,0 STARLINK-3829,1 52348U 22045T   23099.82457605  .00007829  00000-0  50929-3 0  9999,2 52348  53.2157 299.4849 0001184  85.4403 274.6725 15.08848557 55026,6917.854,95.437,540.538,538.9,0.0
52348.0,STARLINK-3829,PAYLOAD,2023-04-10 13:16:37,15.0886439,0.0001163,53.216,296.2141,85.3118,274.8007,0.00071173,0.00011065,0.0,0 STARLINK-3829,1 52348U 22045T   23100.55320844  .00011065  00000-0  71173-3 0  9997,2 52348  53.2160 296.2141 0001163  85.3118 274.8007 15.08864390 55139,6917.806,95.436,540.475,538.866,0.0
52348.0,STARLINK-3829,PAYLOAD,2023-04-10 19:38:10,15.08848522,0.0001231,53.216,295.0243,86.443,273.6703,0.00033882,5.11e-05,0.0,0 STARLINK-3829,1 52348U 22045T   23100.81817419  .00005110  00000-0  33882-3 0  9994,2 52348  53.2160 295.0243 0001231  86.4430 273.6703 15.08848522 55177,6917.854,95.437,540.571,538.868,0.0
52348.0,STARLINK-3829,PAYLOAD,2023-04-11 13:07:24,15.08838615,0.0001022,53.2163,291.7538,91.7565,268.3544,4.6026e-05,4.45e-06,0.0,0 STARLINK-3829,1 52348U 22045T   23101.54681702  .00000445  00000-0  46026-4 0  9990,2 52348  53.2163 291.7538 0001022  91.7565 268.3544 15.08838615 55284,6917.885,95.438,540.457,539.043,0.0
52348.0,STARLINK-3829,PAYLOAD,2023-04-11 21:04:20,15.0884183,9.84e-05,53.2161,290.2668,85.1667,274.9437,0.00010414,1.37e-05,0.0,0 STARLINK-3829,1 52348U 22045T   23101.87801644  .00001370  00000-0  10414-3 0  9994,2 52348  53.2161 290.2668 0000984  85.1667 274.9437 15.08841830 55339,6917.875,95.437,540.421,539.059,0.0
52348.0,STARLINK-3829,PAYLOAD,2023-04-12 12:58:12,15.08837781,8.99e-05,53.2151,287.2939,88.7786,271.3309,-7.4652e-06,-4.06e-06,0.0,0 STARLINK-3829,1 52348U 22045T   23102.54041936 -.00000406  00000-0 -74652-5 0  9996,2 52348  53.2151 287.2939 0000899  88.7786 271.3309 15.08837781 55431,6917.887,95.438,540.374,539.13,0.0
52348.0,STARLINK-3829,PAYLOAD,2023-04-12 19:19:44,15.08844701,0.0001035,53.2146,286.1043,94.147,265.964,9.4577e-05,1.218e-05,0.0,0 STARLINK-3829,1 52348U 22045T   23102.80537503  .00001218  00000-0  94577-4 0  9992,2 52348  53.2146 286.1043 0001035  94.1470 265.9640 15.08844701 55474,6917.866,95.437,540.447,539.015,0.0
52348.0,STARLINK-3829,PAYLOAD,2023-04-13 04:52:03,15.08833677,0.0001478,53.2121,284.3217,91.038,269.0782,2.8839e-05,1.71e-06,0.0,0 STARLINK-3829,1 52348U 22045T   23103.20282194  .00000171  00000-0  28839-4 0  9995,2 52348  53.2121 284.3217 0001478  91.0380 269.0782 15.08833677 55536,6917.9,95.438,540.787,538.742,0.0
52348.0,STARLINK-3829,PAYLOAD,2023-04-14 04:42:50,15.08842648,8.75e-05,53.2166,279.8604,78.458,281.651,0.00012982,1.779e-05,0.0,0 STARLINK-3829,1 52348U 22045T   23104.19641902  .00001779  00000-0  12982-3 0  9996,2 52348  53.2166 279.8604 0000875  78.4580 281.6510 15.08842648 55688,6917.872,95.437,540.343,539.132,0.0
52348.0,STARLINK-3829,PAYLOAD,2023-04-14 20:36:42,15.08842827,0.0001211,53.2159,276.886,77.7153,282.3974,0.00017021,2.422e-05,0.0,0 STARLINK-3829,1 52348U 22045T   23104.85882192  .00002422  00000-0  17021-3 0  9992,2 52348  53.2159 276.8860 0001211  77.7153 282.3974 15.08842827 55786,6917.872,95.437,540.575,538.899,0.0
52348.0,STARLINK-3829,PAYLOAD,2023-04-15 04:33:37,15.08841045,9.01e-05,53.2157,275.3993,82.1727,277.9368,0.00012774,1.746e-05,0.0,0 STARLINK-3829,1 52348U 22045T   23105.19002187  .00001746  00000-0  12774-3 0  9996,2 52348  53.2157 275.3993 0000901  82.1727 277.9368 15.08841045 55831,6917.877,95.437,540.365,539.119,0.0
52348.0,STARLINK-3829,PAYLOAD,2023-04-15 20:27:28,15.08855551,9.14e-05,53.2163,272.4256,78.2047,281.9048,0.00030662,4.597e-05,0.0,0 STARLINK-3829,1 52348U 22045T   23105.85241454  .00004597  00000-0  30662-3 0  9994,2 52348  53.2163 272.4256 0000914  78.2047 281.9048 15.08855551 55931,6917.833,95.437,540.33,539.066,0.0
52348.0,STARLINK-3829,PAYLOAD,2023-04-16 04:24:24,15.08843394,0.0001225,53.2162,270.9398,77.0023,283.1106,0.00014421,2.008e-05,0.0,0 STARLINK-3829,1 52348U 22045T   23106.18362132  .00002008  00000-0  14421-3 0  9998,2 52348  53.2162 270.9398 0001225  77.0023 283.1106 15.08843394 55983,6917.87,95.437,540.582,538.888,0.0
52348.0,STARLINK-3829,PAYLOAD,2023-04-16 10:45:57,15.08843487,0.0001302,53.2162,269.7505,78.0627,282.0511,0.00013524,1.865e-05,0.0,0 STARLINK-3829,1 52348U 22045T   23106.44858174  .00001865  00000-0  13524-3 0  9996,2 52348  53.2162 269.7505 0001302  78.0627 282.0511 15.08843487 56023,6917.87,95.437,540.635,538.834,0.0
52348.0,STARLINK-3829,PAYLOAD,2023-04-16 20:18:15,15.08857545,7.52e-05,53.2164,267.9646,78.1161,281.9916,0.00024927,3.684e-05,0.0,0 STARLINK-3829,1 52348U 22045T   23106.84601180  .00003684  00000-0  24927-3 0  9993,2 52348  53.2164 267.9646 0000752  78.1161 281.9916 15.08857545 56086,6917.827,95.436,540.212,539.172,0.0
52348.0,STARLINK-3829,PAYLOAD,2023-04-17 13:47:30,15.0884746,0.0001184,53.2161,264.696,73.7375,286.3747,0.00015482,2.177e-05,0.0,0 STARLINK-3829,1 52348U 22045T   23107.57465661  .00002177  00000-0  15482-3 0  9998,2 52348  53.2161 264.6960 0001184  73.7375 286.3747 15.08847460 56192,6917.858,95.437,540.542,538.904,0.0
52348.0,STARLINK-3829,PAYLOAD,2023-04-17 16:58:16,15.08852078,0.0001028,53.2166,264.1,84.4622,275.6487,0.00024117,3.554e-05,0.0,0 STARLINK-3829,1 52348U 22045T   23107.70713376  .00003554  00000-0  24117-3 0  9997,2 52348  53.2166 264.1000 0001028  84.4622 275.6487 15.08852078 56214,6917.843,95.437,540.42,538.997,0.0
52348.0,STARLINK-3829,PAYLOAD,2023-04-18 10:27:31,15.08830341,0.0001018,53.216,260.8279,76.9053,283.2052,-0.00013983,-2.512e-05,0.0,0 STARLINK-3829,1 52348U 22045T   23108.43578101 -.00002512  00000-0 -13983-3 0  9997,2 52348  53.2160 260.8279 0001018  76.9053 283.2052 15.08830341 56326,6917.91,95.438,540.479,539.071,0.0
52348.0,STARLINK-3829,PAYLOAD,2023-04-18 16:49:03,15.08836034,8.43e-05,53.2158,259.6384,88.3596,271.7493,0.00016137,2.281e-05,0.0,0 STARLINK-3829,1 52348U 22045T   23108.70074018  .00002281  00000-0  16137-3 0  9990,2 52348  53.2158 259.6384 0000843  88.3596 271.7493 15.08836034 56360,6917.893,95.438,540.341,539.174,0.0
52348.0,STARLINK-3829,PAYLOAD,2023-04-19 10:18:18,15.08838564,0.0001252,53.2162,256.3666,83.0601,277.0533,0.0011017,0.00017288,0.0,0 STARLINK-3829,1 52348U 22045T   23109.42938643  .00017288  00000-0  11017-2 0  9997,2 52348  53.2162 256.3666 0001252  83.0601 277.0533 15.08838564 56472,6917.885,95.438,540.616,538.884,0.0
52348.0,STARLINK-3829,PAYLOAD,2023-04-19 16:39:51,15.08858724,0.0001483,53.2157,255.177,98.6808,261.4352,0.0018176,0.00028772,0.0,0 STARLINK-3829,1 52348U 22045T   23109.69434422  .00028772  00000-0  18176-2 0  9995,2 52348  53.2157 255.1770 0001483  98.6808 261.4352 15.08858724 56517,6917.823,95.436,540.714,538.662,0.0
52348.0,STARLINK-3829,PAYLOAD,2023-04-20 10:09:05,15.08852111,0.0002265,53.2166,251.9053,75.6233,284.501,0.00069173,0.00010742,0.0,0 STARLINK-3829,1 52348U 22045T   23110.42298449  .00010742  00000-0  69173-3 0  9997,2 52348  53.2166 251.9053 0002265  75.6233 284.5010 15.08852111 56624,6917.843,95.437,541.275,538.141,0.0
52348.0,STARLINK-3829,PAYLOAD,2023-04-20 16:30:38,15.08846618,0.0002043,53.2166,250.7163,84.0944,276.0281,0.00084372,0.00013168,0.0,0 STARLINK-3829,1 52348U 22045T   23110.68794463  .00013168  00000-0  84372-3 0  9995,2 52348  53.2166 250.7163 0002043  84.0944 276.0281 15.08846618 56665,6917.86,95.437,541.138,538.312,0.0
52348.0,STARLINK-3829,PAYLOAD,2023-04-20 19:41:24,15.08849391,0.0001388,53.2168,250.124,93.2024,266.9127,0.00056898,8.781e-05,0.0,0 STARLINK-3829,1 52348U 22045T   23110.82042299  .00008781  00000-0  56898-3 0  9991,2 52348  53.2168 250.1240 0001388  93.2024 266.9127 15.08849391 56689,6917.852,95.437,540.677,538.756,0.0
52348.0,STARLINK-3829,PAYLOAD,2023-04-21 02:02:57,15.08835958,9.29e-05,53.2165,248.9334,99.8556,260.2541,0.00021437,3.125e-05,0.0,0 STARLINK-3829,1 52348U 22045T   23111.08538487  .00003125  00000-0  21437-3 0  9997,2 52348  53.2165 248.9334 0000929  99.8556 260.2541 15.08835958 56723,6917.893,95.438,540.4,539.115,0.0
52348.0,STARLINK-3829,PAYLOAD,2023-04-21 21:07:34,15.08858489,0.0001331,53.2161,245.3644,85.5618,274.5526,0.0010439,0.00016373,0.0,0 STARLINK-3829,1 52348U 22045T   23111.88026474  .00016373  00000-0  10439-2 0  9991,2 52348  53.2161 245.3644 0001331  85.5618 274.5526 15.08858489 56841,6917.824,95.436,540.61,538.768,0.0
52348.0,STARLINK-3829,PAYLOAD,2023-04-22 17:47:35,15.08848027,0.0001363,53.2165,241.5043,54.6181,305.4938,0.00061375,9.495e-05,0.0,0 STARLINK-3829,1 52348U 22045T   23112.74138712  .00009495  00000-0  61375-3 0  9999,2 52348  53.2165 241.5043 0001363  54.6181 305.4938 15.08848027 56975,6917.856,95.437,540.664,538.778,0.0
52348.0,STARLINK-3829,PAYLOAD,2023-04-22 20:58:21,15.08860797,0.0001034,53.2147,240.9034,83.9583,276.1527,0.00092954,0.00014545,0.0,0 STARLINK-3829,1 52348U 22045T   23112.87386287  .00014545  00000-0  92954-3 0  9994,2 52348  53.2147 240.9034 0001034  83.9583 276.1527 15.08860797 56992,6917.817,95.436,540.397,538.967,0.0
52348.0,STARLINK-3829,PAYLOAD,2023-04-23 20:49:10,15.08844021,0.0003401,53.2151,236.4439,58.5262,301.6062,0.0011675,0.00018345,0.0,0 STARLINK-3829,1 52348U 22045T   23113.86748385  .00018345  00000-0  11675-2 0  9997,2 52348  53.2151 236.4439 0003401  58.5262 301.6062 15.08844021 57146,6917.868,95.437,542.086,537.38,0.0
